start=new Date('2021-12-28T00:00:00.000Z').valueOf();
sats=[{"FILE":"3253114","REF_FRAME":"TEME","DECAY_DATE":null,"MEAN_ELEMENT_THEORY":"SGP4","ELEMENT_SET_NO":"999","SITE":"AFETR","PERIOD":"95.592","CLASSIFICATION_TYPE":"U","TLE_LINE2":"2 45546  53.0521 147.8072 0002263  97.4458 262.6788 15.06394489 94057","MEAN_MOTION_DOT":"-0.00001269","LAUNCH_DATE":"2020-04-22","GP_ID":"192601789","BSTAR":"-0.00006630000000","TIME_SYSTEM":"UTC","ECCENTRICITY":"0.00022630","RCS_SIZE":"LARGE","MEAN_MOTION_DDOT":"0.0000000000000","ARG_OF_PERICENTER":"97.4458","SEMIMAJOR_AXIS":"6925.365","NORAD_CAT_ID":"45546","MEAN_ANOMALY":"262.6788","OBJECT_TYPE":"PAYLOAD","PERIAPSIS":"545.663","EPOCH":"2021-12-27T20:21:17.323488","RA_OF_ASC_NODE":"147.8072","TLE_LINE1":"1 45546U 20025R   21361.84811717 -.00001269  00000-0 -66300-4 0  9992","REV_AT_EPOCH":"9405","EPHEMERIS_TYPE":"0","APOAPSIS":"548.798","INCLINATION":"53.0521","CENTER_NAME":"EARTH","COUNTRY_CODE":"US","OBJECT_NAME":"STARLINK-1375","MEAN_MOTION":"15.06394489","OBJECT_ID":"2020-025R"},{"ELEMENT_SET_NO":"999","SITE":"AFETR","CLASSIFICATION_TYPE":"U","PERIOD":"95.592","TLE_LINE2":"2 45547  53.0530 147.8207 0002341  93.5291 266.5965 15.06395820 94068","MEAN_MOTION_DOT":"0.00000365","LAUNCH_DATE":"2020-04-22","GP_ID":"192602037","FILE":"3253114","REF_FRAME":"TEME","DECAY_DATE":null,"MEAN_ELEMENT_THEORY":"SGP4","TLE_LINE1":"1 45547U 20025S   21361.84443098  .00000365  00000-0  43455-4 0  9996","RA_OF_ASC_NODE":"147.8207","REV_AT_EPOCH":"9406","EPHEMERIS_TYPE":"0","APOAPSIS":"548.848","INCLINATION":"53.0530","CENTER_NAME":"EARTH","COUNTRY_CODE":"US","OBJECT_NAME":"STARLINK-1377","OBJECT_ID":"2020-025S","MEAN_MOTION":"15.06395820","BSTAR":"0.00004345500000","TIME_SYSTEM":"UTC","ECCENTRICITY":"0.00023410","RCS_SIZE":"LARGE","MEAN_MOTION_DDOT":"0.0000000000000","ARG_OF_PERICENTER":"93.5291","NORAD_CAT_ID":"45547","SEMIMAJOR_AXIS":"6925.361","MEAN_ANOMALY":"266.5965","PERIAPSIS":"545.605","OBJECT_TYPE":"PAYLOAD","EPOCH":"2021-12-27T20:15:58.836672"},{"PERIAPSIS":"545.967","OBJECT_TYPE":"PAYLOAD","EPOCH":"2021-12-27T20:53:07.492704","SEMIMAJOR_AXIS":"6925.341","NORAD_CAT_ID":"45548","MEAN_ANOMALY":"264.5733","MEAN_MOTION_DDOT":"0.0000000000000","ARG_OF_PERICENTER":"95.5460","TIME_SYSTEM":"UTC","BSTAR":"0.00004190200000","RCS_SIZE":"LARGE","ECCENTRICITY":"0.00017880","OBJECT_ID":"2020-025T","MEAN_MOTION":"15.06402566","OBJECT_NAME":"STARLINK-1378","APOAPSIS":"548.444","EPHEMERIS_TYPE":"0","COUNTRY_CODE":"US","CENTER_NAME":"EARTH","INCLINATION":"53.0542","REV_AT_EPOCH":"9405","TLE_LINE1":"1 45548U 20025T   21361.87022561  .00000343  00000-0  41902-4 0  9999","RA_OF_ASC_NODE":"147.7189","FILE":"3253114","DECAY_DATE":null,"MEAN_ELEMENT_THEORY":"SGP4","REF_FRAME":"TEME","GP_ID":"192602285","LAUNCH_DATE":"2020-04-22","TLE_LINE2":"2 45548  53.0542 147.7189 0001788  95.5460 264.5733 15.06402566 94050","MEAN_MOTION_DOT":"0.00000343","SITE":"AFETR","ELEMENT_SET_NO":"999","CLASSIFICATION_TYPE":"U","PERIOD":"95.592"},{"REF_FRAME":"TEME","MEAN_ELEMENT_THEORY":"SGP4","DECAY_DATE":null,"FILE":"3253114","CLASSIFICATION_TYPE":"U","PERIOD":"90.507","SITE":"AFETR","ELEMENT_SET_NO":"999","MEAN_MOTION_DOT":"0.00338955","TLE_LINE2":"2 45549  53.0503 133.6602 0002385  21.5971 338.5155 15.91031288 94246","LAUNCH_DATE":"2020-04-22","GP_ID":"192603033","ECCENTRICITY":"0.00023850","RCS_SIZE":"LARGE","TIME_SYSTEM":"UTC","BSTAR":"0.00105870000000","ARG_OF_PERICENTER":"21.5971","MEAN_MOTION_DDOT":"0.0000540770000","NORAD_CAT_ID":"45549","SEMIMAJOR_AXIS":"6677.533","MEAN_ANOMALY":"338.5155","EPOCH":"2021-12-27T18:57:01.808928","OBJECT_TYPE":"PAYLOAD","PERIAPSIS":"297.805","RA_OF_ASC_NODE":"133.6602","TLE_LINE1":"1 45549U 20025U   21361.78960427  .00338955  54077-4  10587-2 0  9995","REV_AT_EPOCH":"9424","INCLINATION":"53.0503","CENTER_NAME":"EARTH","COUNTRY_CODE":"US","APOAPSIS":"300.990","EPHEMERIS_TYPE":"0","OBJECT_NAME":"STARLINK-1379","MEAN_MOTION":"15.91031288","OBJECT_ID":"2020-025U"},{"OBJECT_NAME":"STARLINK-1390","OBJECT_ID":"2020-025V","MEAN_MOTION":"15.06406512","RA_OF_ASC_NODE":"147.9398","TLE_LINE1":"1 45550U 20025V   21361.82136785  .00003046  00000-0  22328-3 0  9994","REV_AT_EPOCH":"9404","EPHEMERIS_TYPE":"0","APOAPSIS":"548.779","INCLINATION":"53.0531","COUNTRY_CODE":"US","CENTER_NAME":"EARTH","SEMIMAJOR_AXIS":"6925.329","NORAD_CAT_ID":"45550","MEAN_ANOMALY":"260.2454","OBJECT_TYPE":"PAYLOAD","PERIAPSIS":"545.608","EPOCH":"2021-12-27T19:42:46.182240","TIME_SYSTEM":"UTC","BSTAR":"0.00022328000000","ECCENTRICITY":"0.00022900","RCS_SIZE":"LARGE","ARG_OF_PERICENTER":"99.8794","MEAN_MOTION_DDOT":"0.0000000000000","LAUNCH_DATE":"2020-04-22","GP_ID":"192601289","ELEMENT_SET_NO":"999","SITE":"AFETR","CLASSIFICATION_TYPE":"U","PERIOD":"95.592","TLE_LINE2":"2 45550  53.0531 147.9398 0002290  99.8794 260.2454 15.06406512 94048","MEAN_MOTION_DOT":"0.00003046","FILE":"3253114","REF_FRAME":"TEME","MEAN_ELEMENT_THEORY":"SGP4","DECAY_DATE":null},{"ARG_OF_PERICENTER":"99.0338","MEAN_MOTION_DDOT":"0.0000000000000","ECCENTRICITY":"0.00016960","RCS_SIZE":"LARGE","TIME_SYSTEM":"UTC","BSTAR":"0.00013745000000","EPOCH":"2021-12-27T19:46:47.195904","PERIAPSIS":"546.055","OBJECT_TYPE":"PAYLOAD","SEMIMAJOR_AXIS":"6925.365","NORAD_CAT_ID":"45551","MEAN_ANOMALY":"261.0843","INCLINATION":"53.0533","COUNTRY_CODE":"US","CENTER_NAME":"EARTH","EPHEMERIS_TYPE":"0","APOAPSIS":"548.404","TLE_LINE1":"1 45551U 20025W   21361.82415736  .00001766  00000-0  13745-3 0  9991","REV_AT_EPOCH":"9433","RA_OF_ASC_NODE":"127.9251","MEAN_MOTION":"15.06394684","OBJECT_ID":"2020-025W","OBJECT_NAME":"STARLINK-1294","REF_FRAME":"TEME","DECAY_DATE":null,"MEAN_ELEMENT_THEORY":"SGP4","FILE":"3253114","MEAN_MOTION_DOT":"0.00001766","TLE_LINE2":"2 45551  53.0533 127.9251 0001696  99.0338 261.0843 15.06394684 94331","CLASSIFICATION_TYPE":"U","PERIOD":"95.592","SITE":"AFETR","ELEMENT_SET_NO":"999","GP_ID":"192601537","LAUNCH_DATE":"2020-04-22"},{"ARG_OF_PERICENTER":"51.4989","MEAN_MOTION_DDOT":"0.0000000000000","BSTAR":"0.00114940000000","TIME_SYSTEM":"UTC","ECCENTRICITY":"0.00012190","RCS_SIZE":"LARGE","OBJECT_TYPE":"PAYLOAD","PERIAPSIS":"438.800","EPOCH":"2021-12-27T16:30:44.828640","SEMIMAJOR_AXIS":"6817.766","MEAN_ANOMALY":"308.6125","NORAD_CAT_ID":"45552","EPHEMERIS_TYPE":"0","APOAPSIS":"440.462","INCLINATION":"53.0558","COUNTRY_CODE":"US","CENTER_NAME":"EARTH","TLE_LINE1":"1 45552U 20025X   21361.68801885  .00049997  00000-0  11494-2 0  9996","REV_AT_EPOCH":"9457","RA_OF_ASC_NODE":"109.5654","MEAN_MOTION":"15.42196100","OBJECT_ID":"2020-025X","OBJECT_NAME":"STARLINK-1322","FILE":"3253114","REF_FRAME":"TEME","DECAY_DATE":null,"MEAN_ELEMENT_THEORY":"SGP4","TLE_LINE2":"2 45552  53.0558 109.5654 0001219  51.4989 308.6125 15.42196100 94577","MEAN_MOTION_DOT":"0.00049997","ELEMENT_SET_NO":"999","SITE":"AFETR","CLASSIFICATION_TYPE":"U","PERIOD":"93.373","GP_ID":"192602786","LAUNCH_DATE":"2020-04-22"},{"FILE":"3253114","REF_FRAME":"TEME","MEAN_ELEMENT_THEORY":"SGP4","DECAY_DATE":null,"GP_ID":"192602533","LAUNCH_DATE":"2020-04-22","TLE_LINE2":"2 45553  53.0551 128.1781 0001349  94.4015 265.7128 15.06400044 93031","MEAN_MOTION_DOT":"-0.00000757","ELEMENT_SET_NO":"999","SITE":"AFETR","PERIOD":"95.592","CLASSIFICATION_TYPE":"U","PERIAPSIS":"546.279","OBJECT_TYPE":"PAYLOAD","EPOCH":"2021-12-27T18:27:10.253952","SEMIMAJOR_AXIS":"6925.348","MEAN_ANOMALY":"265.7128","NORAD_CAT_ID":"45553","MEAN_MOTION_DDOT":"0.0000000000000","ARG_OF_PERICENTER":"94.4015","BSTAR":"-0.00003191700000","TIME_SYSTEM":"UTC","ECCENTRICITY":"0.00013490","RCS_SIZE":"LARGE","MEAN_MOTION":"15.06400044","OBJECT_ID":"2020-025Y","OBJECT_NAME":"STARLINK-1323","APOAPSIS":"548.148","EPHEMERIS_TYPE":"0","INCLINATION":"53.0551","COUNTRY_CODE":"US","CENTER_NAME":"EARTH","RA_OF_ASC_NODE":"128.1781","TLE_LINE1":"1 45553U 20025Y   21361.76886868 -.00000757  00000-0 -31917-4 0  9997","REV_AT_EPOCH":"9303"},{"RCS_SIZE":"LARGE","ECCENTRICITY":"0.00013950","BSTAR":"0.00009169800000","TIME_SYSTEM":"UTC","MEAN_MOTION_DDOT":"0.0000000000000","ARG_OF_PERICENTER":"106.7945","SEMIMAJOR_AXIS":"6925.351","MEAN_ANOMALY":"253.3197","NORAD_CAT_ID":"45554","EPOCH":"2021-12-27T18:16:32.791296","PERIAPSIS":"546.250","OBJECT_TYPE":"PAYLOAD","TLE_LINE1":"1 45554U 20025Z   21361.76149064  .00001085  00000-0  91698-4 0  9993","REV_AT_EPOCH":"9432","RA_OF_ASC_NODE":"128.2042","CENTER_NAME":"EARTH","COUNTRY_CODE":"US","INCLINATION":"53.0532","EPHEMERIS_TYPE":"0","APOAPSIS":"548.182","OBJECT_NAME":"STARLINK-1325","OBJECT_ID":"2020-025Z","MEAN_MOTION":"15.06399196","MEAN_ELEMENT_THEORY":"SGP4","DECAY_DATE":null,"REF_FRAME":"TEME","FILE":"3253114","PERIOD":"95.592","CLASSIFICATION_TYPE":"U","SITE":"AFETR","ELEMENT_SET_NO":"999","MEAN_MOTION_DOT":"0.00001085","TLE_LINE2":"2 45554  53.0532 128.2042 0001395 106.7945 253.3197 15.06399196 94329","LAUNCH_DATE":"2020-04-22","GP_ID":"192601790"},{"MEAN_MOTION":"15.06392712","OBJECT_ID":"2020-025AA","OBJECT_NAME":"STARLINK-1327","APOAPSIS":"548.582","EPHEMERIS_TYPE":"0","CENTER_NAME":"EARTH","COUNTRY_CODE":"US","INCLINATION":"53.0522","TLE_LINE1":"1 45555U 20025AA  21361.85732918 -.00000482  00000-0 -13456-4 0  9998","REV_AT_EPOCH":"9433","RA_OF_ASC_NODE":"127.7744","PERIAPSIS":"545.890","OBJECT_TYPE":"PAYLOAD","EPOCH":"2021-12-27T20:34:33.241152","MEAN_ANOMALY":"264.6843","SEMIMAJOR_AXIS":"6925.371","NORAD_CAT_ID":"45555","MEAN_MOTION_DDOT":"0.0000000000000","ARG_OF_PERICENTER":"95.4368","BSTAR":"-0.00001345600000","TIME_SYSTEM":"UTC","RCS_SIZE":"LARGE","ECCENTRICITY":"0.00019440","GP_ID":"192602038","LAUNCH_DATE":"2020-04-22","TLE_LINE2":"2 45555  53.0522 127.7744 0001944  95.4368 264.6843 15.06392712 94336","MEAN_MOTION_DOT":"-0.00000482","ELEMENT_SET_NO":"999","SITE":"AFETR","PERIOD":"95.593","CLASSIFICATION_TYPE":"U","FILE":"3253114","DECAY_DATE":null,"MEAN_ELEMENT_THEORY":"SGP4","REF_FRAME":"TEME"}];
